{"type": "FeatureCollection", "features": [ {"type": "Feature", "properties": {"norad_id": 34910, "name": "COSMOS 2251 DEB", "group": "cosmos-2251-debris", "lat": 43.25103816323807, "lon": 100.37855442560215, "alt_km": 1431.9297754733097, "timestamp": "2025-12-23T09:49:07.478419+00:00", "meta": {"OBJECT_NAME": "COSMOS 2251 DEB", "OBJECT_ID": "1993-036ADF", "EPOCH": "2025-12-21T14:51:00.254880", "MEAN_MOTION": 13.37701578, "ECCENTRICITY": 0.0467839, "INCLINATION": 73.8764, "RA_OF_ASC_NODE": 87.4128, "ARG_OF_PERICENTER": 204.8988, "MEAN_ANOMALY": 224.1409, "EPHEMERIS_TYPE": 0, "CLASSIFICATION_TYPE": "U", "NORAD_CAT_ID": 34910, "ELEMENT_SET_NO": 999, "REV_AT_EPOCH": 81643, "BSTAR": 0.00088658, "MEAN_MOTION_DOT": 8.55e-06, "MEAN_MOTION_DDOT": 0}, "tle": {"line1": "1 34910U 93036ADF 25355.61875295  .00000855  00000+0  88658-3 0  9996", "line2": "2 34910  73.8764  87.4128 0467839 204.8988 224.1409 13.37701578816436"}}, "geometry": {"type": "Point", "coordinates": [100.37855442560215, 43.25103816323807]}}, {"type": "Feature", "properties": {"norad_id": 34911, "name": "COSMOS 2251 DEB", "group": "cosmos-2251-debris", "lat": 3.8614031015975394, "lon": 43.304629651249506, "alt_km": 756.0439652715522, "timestamp": "2025-12-23T09:49:07.478430+00:00", "meta": {"OBJECT_NAME": "COSMOS 2251 DEB", "OBJECT_ID": "1993-036ADG", "EPOCH": "2025-12-22T09:09:13.653792", "MEAN_MOTION": 14.59385987, "ECCENTRICITY": 0.00840574, "INCLINATION": 74.0405, "RA_OF_ASC_NODE": 226.3694, "ARG_OF_PERICENTER": 349.3785, "MEAN_ANOMALY": 189.5016, "EPHEMERIS_TYPE": 0, "CLASSIFICATION_TYPE": "U", "NORAD_CAT_ID": 34911, "ELEMENT_SET_NO": 999, "REV_AT_EPOCH": 88727, "BSTAR": 0.00010848035, "MEAN_MOTION_DOT": 5.07e-06, "MEAN_MOTION_DDOT": 0}, "tle": {"line1": "1 34911U 93036ADG 25356.38140803  .00000507  00000+0  10848-3 0  9992", "line2": "2 34911  74.0405 226.3694 0084057 349.3785 189.5016 14.59385987887276"}}, "geometry": {"type": "Point", "coordinates": [43.304629651249506, 3.8614031015975394]}}, {"type": "Feature", "properties": {"norad_id": 34913, "name": "COSMOS 2251 DEB", "group": "cosmos-2251-debris", "lat": -48.048990428402455, "lon": -115.63239460901733, "alt_km": 775.4468465635873, "timestamp": "2025-12-23T09:49:07.478440+00:00", "meta": {"OBJECT_NAME": "COSMOS 2251 DEB", "OBJECT_ID": "1993-036ADJ", "EPOCH": "2025-12-21T12:00:36.342432", "MEAN_MOTION": 14.34639943, "ECCENTRICITY": 0.00207047, "INCLINATION": 74.0285, "RA_OF_ASC_NODE": 266.4434, "ARG_OF_PERICENTER": 13.9816, "MEAN_ANOMALY": 161.7419, "EPHEMERIS_TYPE": 0, "CLASSIFICATION_TYPE": "U", "NORAD_CAT_ID": 34913, "ELEMENT_SET_NO": 999, "REV_AT_EPOCH": 65313, "BSTAR": 4.3870278e-05, "MEAN_MOTION_DOT": 9.8e-07, "MEAN_MOTION_DDOT": 0}, "tle": {"line1": "1 34913U 93036ADJ 25355.50042063  .00000098  00000+0  43870-4 0  9993", "line2": "2 34913  74.0285 266.4434 0020704  13.9816 161.7419 14.34639943653131"}}, "geometry": {"type": "Point", "coordinates": [-115.63239460901733, -48.048990428402455]}}, {"type": "Feature", "properties": {"norad_id": 34918, "name": "COSMOS 2251 DEB", "group": "cosmos-2251-debris", "lat": 36.9610920801557, "lon": -54.32078996540197, "alt_km": 703.6136790715209, "timestamp": "2025-12-23T09:49:07.478450+00:00", "meta": {"OBJECT_NAME": "COSMOS 2251 DEB", "OBJECT_ID": "1993-036ADP", "EPOCH": "2025-12-22T14:44:03.101856", "MEAN_MOTION": 14.6135182, "ECCENTRICITY": 0.00330201, "INCLINATION": 74.0716, "RA_OF_ASC_NODE": 294.7864, "ARG_OF_PERICENTER": 260.6001, "MEAN_ANOMALY": 276.2679, "EPHEMERIS_TYPE": 0, "CLASSIFICATION_TYPE": "U", "NORAD_CAT_ID": 34918, "ELEMENT_SET_NO": 999, "REV_AT_EPOCH": 65480, "BSTAR": 0.0016525279, "MEAN_MOTION_DOT": 8.212e-05, "MEAN_MOTION_DDOT": 0}, "tle": {"line1": "1 34918U 93036ADP 25356.61392479  .00008212  00000+0  16525-2 0  9991", "line2": "2 34918  74.0716 294.7864 0033020 260.6001 276.2679 14.61351820654808"}}, "geometry": {"type": "Point", "coordinates": [-54.32078996540197, 36.9610920801557]}}, {"type": "Feature", "properties": {"norad_id": 34924, "name": "COSMOS 2251 DEB", "group": "cosmos-2251-debris", "lat": -11.552828035323365, "lon": 65.73881490213998, "alt_km": 733.0081323106206, "timestamp": "2025-12-23T09:49:07.478460+00:00", "meta": {"OBJECT_NAME": "COSMOS 2251 DEB", "OBJECT_ID": "1993-036ADV", "EPOCH": "2025-12-22T09:46:44.969952", "MEAN_MOTION": 14.60110049, "ECCENTRICITY": 0.0053569, "INCLINATION": 74.0407, "RA_OF_ASC_NODE": 71.0027, "ARG_OF_PERICENTER": 153.2205, "MEAN_ANOMALY": 332.1375, "EPHEMERIS_TYPE": 0, "CLASSIFICATION_TYPE": "U", "NORAD_CAT_ID": 34924, "ELEMENT_SET_NO": 999, "REV_AT_EPOCH": 87864, "BSTAR": 0.00085018675, "MEAN_MOTION_DOT": 4.145e-05, "MEAN_MOTION_DDOT": 0}, "tle": {"line1": "1 34924U 93036ADV 25356.40746493  .00004145  00000+0  85019-3 0  9990", "line2": "2 34924  74.0407  71.0027 0053569 153.2205 332.1375 14.60110049878642"}}, "geometry": {"type": "Point", "coordinates": [65.73881490213998, -11.552828035323365]}}, {"type": "Feature", "properties": {"norad_id": 34944, "name": "COSMOS 2251 DEB", "group": "cosmos-2251-debris", "lat": 41.834814710819764, "lon": 17.659275780659847, "alt_km": 803.3770967278588, "timestamp": "2025-12-23T09:49:07.478470+00:00", "meta": {"OBJECT_NAME": "COSMOS 2251 DEB", "OBJECT_ID": "1993-036ADX", "EPOCH": "2025-12-17T02:06:11.847168", "MEAN_MOTION": 14.14195665, "ECCENTRICITY": 0.02198727, "INCLINATION": 73.7495, "RA_OF_ASC_NODE": 224.195, "ARG_OF_PERICENTER": 70.8954, "MEAN_ANOMALY": 291.5851, "EPHEMERIS_TYPE": 0, "CLASSIFICATION_TYPE": "U", "NORAD_CAT_ID": 34944, "ELEMENT_SET_NO": 999, "REV_AT_EPOCH": 64144, "BSTAR": 0.00030334686, "MEAN_MOTION_DOT": 7.03e-06, "MEAN_MOTION_DDOT": 0}, "tle": {"line1": "1 34944U 93036ADX 25351.08763712  .00000703  00000+0  30335-3 0  9991", "line2": "2 34944  73.7495 224.1950 0219872  70.8954 291.5851 14.14195665641448"}}, "geometry": {"type": "Point", "coordinates": [17.659275780659847, 41.834814710819764]}}, {"type": "Feature", "properties": {"norad_id": 34946, "name": "COSMOS 2251 DEB", "group": "cosmos-2251-debris", "lat": -73.83552782941219, "lon": -137.07457146290034, "alt_km": 727.4560606107743, "timestamp": "2025-12-23T09:49:07.478480+00:00", "meta": {"OBJECT_NAME": "COSMOS 2251 DEB", "OBJECT_ID": "1993-036ADZ", "EPOCH": "2025-12-22T14:32:14.157024", "MEAN_MOTION": 14.62044182, "ECCENTRICITY": 0.00485038, "INCLINATION": 74.0239, "RA_OF_ASC_NODE": 323.2107, "ARG_OF_PERICENTER": 97.3579, "MEAN_ANOMALY": 263.3103, "EPHEMERIS_TYPE": 0, "CLASSIFICATION_TYPE": "U", "NORAD_CAT_ID": 34946, "ELEMENT_SET_NO": 999, "REV_AT_EPOCH": 88353, "BSTAR": 0.00053383233, "MEAN_MOTION_DOT": 2.695e-05, "MEAN_MOTION_DDOT": 0}, "tle": {"line1": "1 34946U 93036ADZ 25356.60571941  .00002695  00000+0  53383-3 0  9997", "line2": "2 34946  74.0239 323.2107 0048503  97.3579 263.3103 14.62044182883538"}}, "geometry": {"type": "Point", "coordinates": [-137.07457146290034, -73.83552782941219]}}, {"type": "Feature", "properties": {"norad_id": 34949, "name": "COSMOS 2251 DEB", "group": "cosmos-2251-debris", "lat": -73.6865209785775, "lon": -12.904829374375444, "alt_km": 608.7112292987158, "timestamp": "2025-12-23T09:49:07.478491+00:00", "meta": {"OBJECT_NAME": "COSMOS 2251 DEB", "OBJECT_ID": "1993-036AEC", "EPOCH": "2025-12-22T14:41:39.809184", "MEAN_MOTION": 14.74062836, "ECCENTRICITY": 0.00801208, "INCLINATION": 74.0192, "RA_OF_ASC_NODE": 90.3708, "ARG_OF_PERICENTER": 233.64, "MEAN_ANOMALY": 125.7362, "EPHEMERIS_TYPE": 0, "CLASSIFICATION_TYPE": "U", "NORAD_CAT_ID": 34949, "ELEMENT_SET_NO": 999, "REV_AT_EPOCH": 88507, "BSTAR": 0.0005139703, "MEAN_MOTION_DOT": 3.528e-05, "MEAN_MOTION_DDOT": 0}, "tle": {"line1": "1 34949U 93036AEC 25356.61226631  .00003528  00000+0  51397-3 0  9993", "line2": "2 34949  74.0192  90.3708 0080120 233.6400 125.7362 14.74062836885075"}}, "geometry": {"type": "Point", "coordinates": [-12.904829374375444, -73.6865209785775]}}, {"type": "Feature", "properties": {"norad_id": 34953, "name": "COSMOS 2251 DEB", "group": "cosmos-2251-debris", "lat": 46.27612174039958, "lon": 24.254462386225956, "alt_km": 634.6536921587922, "timestamp": "2025-12-23T09:49:07.478514+00:00", "meta": {"OBJECT_NAME": "COSMOS 2251 DEB", "OBJECT_ID": "1993-036AEG", "EPOCH": "2025-12-22T11:23:59.510976", "MEAN_MOTION": 14.69037291, "ECCENTRICITY": 0.00586655, "INCLINATION": 74.0926, "RA_OF_ASC_NODE": 8.7074, "ARG_OF_PERICENTER": 357.9474, "MEAN_ANOMALY": 152.224, "EPHEMERIS_TYPE": 0, "CLASSIFICATION_TYPE": "U", "NORAD_CAT_ID": 34953, "ELEMENT_SET_NO": 999, "REV_AT_EPOCH": 88271, "BSTAR": 0.0008576982, "MEAN_MOTION_DOT": 5.138e-05, "MEAN_MOTION_DDOT": 0}, "tle": {"line1": "1 34953U 93036AEG 25356.47499434  .00005138  00000+0  85770-3 0  9996", "line2": "2 34953  74.0926   8.7074 0058665 357.9474 152.2240 14.69037291882713"}}, "geometry": {"type": "Point", "coordinates": [24.254462386225956, 46.27612174039958]}}, {"type": "Feature", "properties": {"norad_id": 34955, "name": "COSMOS 2251 DEB", "group": "cosmos-2251-debris", "lat": -42.233634705325024, "lon": -150.2609446799142, "alt_km": 521.5299676685718, "timestamp": "2025-12-23T09:49:07.478526+00:00", "meta": {"OBJECT_NAME": "COSMOS 2251 DEB", "OBJECT_ID": "1993-036AEJ", "EPOCH": "2025-12-20T00:24:58.893120", "MEAN_MOTION": 15.00658938, "ECCENTRICITY": 0.00779123, "INCLINATION": 74.0366, "RA_OF_ASC_NODE": 231.6989, "ARG_OF_PERICENTER": 299.5962, "MEAN_ANOMALY": 59.7477, "EPHEMERIS_TYPE": 0, "CLASSIFICATION_TYPE": "U", "NORAD_CAT_ID": 34955, "ELEMENT_SET_NO": 999, "REV_AT_EPOCH": 90143, "BSTAR": 0.00046776562, "MEAN_MOTION_DOT": 6.274e-05, "MEAN_MOTION_DDOT": 0}, "tle": {"line1": "1 34955U 93036AEJ 25354.01734830  .00006274  00000+0  46777-3 0  9994", "line2": "2 34955  74.0366 231.6989 0077912 299.5962  59.7477 15.00658938901431"}}, "geometry": {"type": "Point", "coordinates": [-150.2609446799142, -42.233634705325024]}}]}